0 FENGYUN 1C DEB
1 31424U 99025BTL 13281.11611942 -.00000015  00000-0  14278-4 0  4717
2 31424 098.5289 161.5525 0097367 111.2017 249.9705 14.05432962333097
0 FENGYUN 1C DEB
1 31424U 99025BTL 13282.46877426  .00000067  00000-0  63055-4 0  4721
2 31424 098.5275 162.8248 0096905 107.4121 253.7843 14.05434475333286
0 FENGYUN 1C DEB
1 31424U 99025BTL 13283.89261786  .00000498  00000-0  31745-3 0  4734
2 31424 098.5301 164.1643 0097588 103.3035 257.9035 14.05437442333485
0 FENGYUN 1C DEB
1 31424U 99025BTL 13288.44890385  .00000567  00000-0  35810-3 0  4748
2 31424 098.5290 168.4514 0097728 090.4289 270.8171 14.05443353334124
0 FENGYUN 1C DEB
1 31424U 99025BTL 13294.85612696  .00000567  00000-0  35810-3 0  4758
2 31424 098.5290 174.4811 0097722 072.3236 288.8574 14.05451112335024
